ONEWEB-0196             
1 48218U 21031J   24333.43355637  .00000160  00000+0  39835-3 0  9998
2 48218  87.9029  42.2063 0001796 102.9984 257.1347 13.14501717173902
ONEWEB-0183             
1 48219U 21031K   24333.63653634  .00000180  00000+0  45228-3 0  9994
2 48219  87.9024  42.1810 0001923 106.5129 253.6212 13.14502036174021
ONEWEB-0185             
1 48220U 21031L   24334.19553292  .00000229  00000+0  58254-3 0  9994
2 48220  87.9027  42.0414 0001701 110.4174 249.7138 13.14502250174024
ONEWEB-0187             
1 48221U 21031M   24333.48034937  .00000216  00000+0  54786-3 0  9998
2 48221  87.9026  42.2175 0001822 103.6017 256.5315 13.14501545173943
ONEWEB-0192             
1 48222U 21031N   24334.45003476 -.00000158  00000+0 -45980-3 0  9994
2 48222  87.9026  42.0228 0001689 100.8251 259.3069 13.14500792173996
ONEWEB-0219             
1 48223U 21031P   24333.59212196  .00000011  00000+0 -41492-5 0  9993
2 48223  87.9026  42.1666 0001703 110.0741 250.0572 13.14504974174071
ONEWEB-0202             
1 48224U 21031Q   24334.48651822  .00000291  00000+0  74970-3 0  9990
2 48224  87.9027  42.0065 0000933 103.8296 256.2937 13.14504763174185
ONEWEB-0204             
1 48225U 21031R   24333.83554149 -.00000392  00000+0 -10908-2 0  9997
2 48225  87.9029  42.1474 0002121 105.1537 254.9827 13.14502246173981
